{
  "norad_id": 57897,
  "name": "STARLINK-30474",
  "history": [
    {
      "epoch": "2026-03-28T17:54:01.182528Z",
      "apogee_km": 486.51643631081515,
      "perigee_km": 484.5812887187385,
      "latitude_deg": 1.8672538599151132e-05,
      "longitude_deg": 111.6606164783731,
      "height_km": 485.5628869679854,
      "semi_major_axis_km": 6863.685862514777,
      "eccentricity": 0.00014097,
      "inclination_deg": 43.0002,
      "raan_deg": 206.3274,
      "arg_perigee_deg": 255.8044,
      "mean_anomaly_deg": 104.2651,
      "mean_motion_rev_day": 15.26745555
    },
    {
      "epoch": "2026-03-29T00:10:50.452896Z",
      "apogee_km": 486.6389131820515,
      "perigee_km": 484.37253835400315,
      "latitude_deg": 4.566553001240941e-05,
      "longitude_deg": 15.722027040639642,
      "height_km": 485.4546255172746,
      "semi_major_axis_km": 6863.642725768027,
      "eccentricity": 0.0001651,
      "inclination_deg": 43.0008,
      "raan_deg": 204.852,
      "arg_perigee_deg": 261.2764,
      "mean_anomaly_deg": 98.7901,
      "mean_motion_rev_day": 15.26759948
    },
    {
      "epoch": "2026-03-29T23:43:58.064736Z",
      "apogee_km": 486.628750968036,
      "perigee_km": 484.4666902810395,
      "latitude_deg": -5.6819110279701386e-05,
      "longitude_deg": 15.938251279878488,
      "height_km": 485.31298967623087,
      "semi_major_axis_km": 6863.6847206245375,
      "eccentricity": 0.0001575,
      "inclination_deg": 43.001,
      "raan_deg": 199.3173,
      "arg_perigee_deg": 270.6242,
      "mean_anomaly_deg": 89.4428,
      "mean_motion_rev_day": 15.26745936
    },
    {
      "epoch": "2026-03-29T23:43:58.065600Z",
      "apogee_km": 486.6285450574942,
      "perigee_km": 484.4668961915813,
      "latitude_deg": 9.432187961931962e-06,
      "longitude_deg": 15.938318320914016,
      "height_km": 485.31298302101914,
      "semi_major_axis_km": 6863.6847206245375,
      "eccentricity": 0.00015747,
      "inclination_deg": 43.001,
      "raan_deg": 199.3173,
      "arg_perigee_deg": 270.6243,
      "mean_anomaly_deg": 89.4428,
      "mean_motion_rev_day": 15.26745936
    },
    {
      "epoch": "2026-03-30T13:51:51.015456Z",
      "apogee_km": 486.57317729079205,
      "perigee_km": 484.61275873732757,
      "latitude_deg": 2.393416789839212e-05,
      "longitude_deg": 160.065955112253,
      "height_km": 485.355467136844,
      "semi_major_axis_km": 6863.7299680140595,
      "eccentricity": 0.00014281,
      "inclination_deg": 43.0003,
      "raan_deg": 195.9959,
      "arg_perigee_deg": 270.8384,
      "mean_anomaly_deg": 89.2304,
      "mean_motion_rev_day": 15.26730839
    }
  ]
}